{"type": "FeatureCollection", "features": [ {"type": "Feature", "properties": {"norad_id": 66603, "name": "STARLINK-36048", "group": "last-30-days", "lat": -32.8212779248894, "lon": 112.22770116170355, "alt_km": 340.65079567307384, "timestamp": "2025-12-03T08:58:44.778830+00:00", "meta": {"OBJECT_NAME": "STARLINK-36048", "OBJECT_ID": "2025-270R", "EPOCH": "2025-12-03T04:00:01.998720", "MEAN_MOTION": 15.77884414, "ECCENTRICITY": 0.0001388, "INCLINATION": 42.9989, "RA_OF_ASC_NODE": 249.6873, "ARG_OF_PERICENTER": 272.96, "MEAN_ANOMALY": 220.1713, "EPHEMERIS_TYPE": 0, "CLASSIFICATION_TYPE": "U", "NORAD_CAT_ID": 66603, "ELEMENT_SET_NO": 999, "REV_AT_EPOCH": 276, "BSTAR": -0.011094, "MEAN_MOTION_DOT": -0.01709344, "MEAN_MOTION_DDOT": 0}, "tle": {"line1": "1 66603U 25270R   25337.16668980 -.01709344  00000+0 -11094-1 0  9996", "line2": "2 66603  42.9989 249.6873 0001388 272.9600 220.1713 15.77884414  2769"}}, "geometry": {"type": "Point", "coordinates": [112.22770116170355, -32.8212779248894]}}, {"type": "Feature", "properties": {"norad_id": 66604, "name": "STARLINK-35977", "group": "last-30-days", "lat": -33.741509572637625, "lon": 114.21426825680527, "alt_km": 340.5705147506169, "timestamp": "2025-12-03T08:58:44.778840+00:00", "meta": {"OBJECT_NAME": "STARLINK-35977", "OBJECT_ID": "2025-270S", "EPOCH": "2025-12-03T04:00:01.998720", "MEAN_MOTION": 15.77897678, "ECCENTRICITY": 0.0001515, "INCLINATION": 42.9991, "RA_OF_ASC_NODE": 249.6826, "ARG_OF_PERICENTER": 271.895, "MEAN_ANOMALY": 223.1323, "EPHEMERIS_TYPE": 0, "CLASSIFICATION_TYPE": "U", "NORAD_CAT_ID": 66604, "ELEMENT_SET_NO": 999, "REV_AT_EPOCH": 286, "BSTAR": -0.011136, "MEAN_MOTION_DOT": -0.01715978, "MEAN_MOTION_DDOT": 0}, "tle": {"line1": "1 66604U 25270S   25337.16668980 -.01715978  00000+0 -11136-1 0  9994", "line2": "2 66604  42.9991 249.6826 0001515 271.8950 223.1323 15.77897678  2866"}}, "geometry": {"type": "Point", "coordinates": [114.21426825680527, -33.741509572637625]}}, {"type": "Feature", "properties": {"norad_id": 66605, "name": "STARLINK-36052", "group": "last-30-days", "lat": -34.63387919680478, "lon": 116.25518230846129, "alt_km": 340.7181362533811, "timestamp": "2025-12-03T08:58:44.778851+00:00", "meta": {"OBJECT_NAME": "STARLINK-36052", "OBJECT_ID": "2025-270T", "EPOCH": "2025-12-03T04:00:01.998720", "MEAN_MOTION": 15.77901873, "ECCENTRICITY": 0.0001559, "INCLINATION": 42.9991, "RA_OF_ASC_NODE": 249.6781, "ARG_OF_PERICENTER": 282.0015, "MEAN_ANOMALY": 214.9416, "EPHEMERIS_TYPE": 0, "CLASSIFICATION_TYPE": "U", "NORAD_CAT_ID": 66605, "ELEMENT_SET_NO": 999, "REV_AT_EPOCH": 286, "BSTAR": -0.011172, "MEAN_MOTION_DOT": -0.01721264, "MEAN_MOTION_DDOT": 0}, "tle": {"line1": "1 66605U 25270T   25337.16668980 -.01721264  00000+0 -11172-1 0  9990", "line2": "2 66605  42.9991 249.6781 0001559 282.0015 214.9416 15.77901873  2865"}}, "geometry": {"type": "Point", "coordinates": [116.25518230846129, -34.63387919680478]}}, {"type": "Feature", "properties": {"norad_id": 66606, "name": "STARLINK-36063", "group": "last-30-days", "lat": -36.375438175507334, "lon": 120.63792397511355, "alt_km": 340.7669657687338, "timestamp": "2025-12-03T08:58:44.778861+00:00", "meta": {"OBJECT_NAME": "STARLINK-36063", "OBJECT_ID": "2025-270U", "EPOCH": "2025-12-03T04:00:01.998720", "MEAN_MOTION": 15.77849926, "ECCENTRICITY": 0.0001525, "INCLINATION": 42.999, "RA_OF_ASC_NODE": 249.6676, "ARG_OF_PERICENTER": 268.8188, "MEAN_ANOMALY": 232.1441, "EPHEMERIS_TYPE": 0, "CLASSIFICATION_TYPE": "U", "NORAD_CAT_ID": 66606, "ELEMENT_SET_NO": 999, "REV_AT_EPOCH": 286, "BSTAR": -0.011333, "MEAN_MOTION_DOT": -0.01739507, "MEAN_MOTION_DDOT": 0}, "tle": {"line1": "1 66606U 25270U   25337.16668980 -.01739507  00000+0 -11333-1 0  9999", "line2": "2 66606  42.9990 249.6676 0001525 268.8188 232.1441 15.77849926  2864"}}, "geometry": {"type": "Point", "coordinates": [120.63792397511355, -36.375438175507334]}}, {"type": "Feature", "properties": {"norad_id": 66607, "name": "STARLINK-35993", "group": "last-30-days", "lat": -35.55090934361166, "lon": 118.48911358432042, "alt_km": 340.8532346518459, "timestamp": "2025-12-03T08:58:44.778874+00:00", "meta": {"OBJECT_NAME": "STARLINK-35993", "OBJECT_ID": "2025-270V", "EPOCH": "2025-12-03T04:00:01.998720", "MEAN_MOTION": 15.77851449, "ECCENTRICITY": 0.0001471, "INCLINATION": 42.999, "RA_OF_ASC_NODE": 249.6726, "ARG_OF_PERICENTER": 275.7505, "MEAN_ANOMALY": 223.2822, "EPHEMERIS_TYPE": 0, "CLASSIFICATION_TYPE": "U", "NORAD_CAT_ID": 66607, "ELEMENT_SET_NO": 999, "REV_AT_EPOCH": 276, "BSTAR": -0.011318, "MEAN_MOTION_DOT": -0.01737483, "MEAN_MOTION_DDOT": 0}, "tle": {"line1": "1 66607U 25270V   25337.16668980 -.01737483  00000+0 -11318-1 0  9994", "line2": "2 66607  42.9990 249.6726 0001471 275.7505 223.2822 15.77851449  2767"}}, "geometry": {"type": "Point", "coordinates": [118.48911358432042, -35.55090934361166]}}, {"type": "Feature", "properties": {"norad_id": 66608, "name": "STARLINK-36036", "group": "last-30-days", "lat": -37.161554384508875, "lon": 122.83516274819095, "alt_km": 340.94437207952706, "timestamp": "2025-12-03T08:58:44.778884+00:00", "meta": {"OBJECT_NAME": "STARLINK-36036", "OBJECT_ID": "2025-270W", "EPOCH": "2025-12-03T04:00:01.998720", "MEAN_MOTION": 15.77854445, "ECCENTRICITY": 0.0001337, "INCLINATION": 42.9991, "RA_OF_ASC_NODE": 249.6632, "ARG_OF_PERICENTER": 272.987, "MEAN_ANOMALY": 229.9082, "EPHEMERIS_TYPE": 0, "CLASSIFICATION_TYPE": "U", "NORAD_CAT_ID": 66608, "ELEMENT_SET_NO": 999, "REV_AT_EPOCH": 270, "BSTAR": -0.011429, "MEAN_MOTION_DOT": -0.01752533, "MEAN_MOTION_DDOT": 0}, "tle": {"line1": "1 66608U 25270W   25337.16668980 -.01752533  00000+0 -11429-1 0  9991", "line2": "2 66608  42.9991 249.6632 0001337 272.9870 229.9082 15.77854445  2704"}}, "geometry": {"type": "Point", "coordinates": [122.83516274819095, -37.161554384508875]}}, {"type": "Feature", "properties": {"norad_id": 66609, "name": "STARLINK-36034", "group": "last-30-days", "lat": -37.902173348811566, "lon": 125.06489187204399, "alt_km": 340.9670832984066, "timestamp": "2025-12-03T08:58:44.778894+00:00", "meta": {"OBJECT_NAME": "STARLINK-36034", "OBJECT_ID": "2025-270X", "EPOCH": "2025-12-03T04:00:01.998720", "MEAN_MOTION": 15.77853673, "ECCENTRICITY": 0.0001374, "INCLINATION": 42.9991, "RA_OF_ASC_NODE": 249.6583, "ARG_OF_PERICENTER": 274.9778, "MEAN_ANOMALY": 229.8421, "EPHEMERIS_TYPE": 0, "CLASSIFICATION_TYPE": "U", "NORAD_CAT_ID": 66609, "ELEMENT_SET_NO": 999, "REV_AT_EPOCH": 270, "BSTAR": -0.011449, "MEAN_MOTION_DOT": -0.01755238, "MEAN_MOTION_DDOT": 0}, "tle": {"line1": "1 66609U 25270X   25337.16668980 -.01755238  00000+0 -11449-1 0  9999", "line2": "2 66609  42.9991 249.6583 0001374 274.9778 229.8421 15.77853673  2708"}}, "geometry": {"type": "Point", "coordinates": [125.06489187204399, -37.902173348811566]}}, {"type": "Feature", "properties": {"norad_id": 66610, "name": "STARLINK-35680", "group": "last-30-days", "lat": -38.613367175774954, "lon": 127.38510738202307, "alt_km": 341.01997750120154, "timestamp": "2025-12-03T08:58:44.778904+00:00", "meta": {"OBJECT_NAME": "STARLINK-35680", "OBJECT_ID": "2025-270Y", "EPOCH": "2025-12-03T04:00:01.998720", "MEAN_MOTION": 15.77846638, "ECCENTRICITY": 0.0001326, "INCLINATION": 42.9991, "RA_OF_ASC_NODE": 249.6532, "ARG_OF_PERICENTER": 271.7155, "MEAN_ANOMALY": 235.0732, "EPHEMERIS_TYPE": 0, "CLASSIFICATION_TYPE": "U", "NORAD_CAT_ID": 66610, "ELEMENT_SET_NO": 999, "REV_AT_EPOCH": 297, "BSTAR": -0.011569, "MEAN_MOTION_DOT": -0.01770823, "MEAN_MOTION_DDOT": 0}, "tle": {"line1": "1 66610U 25270Y   25337.16668980 -.01770823  00000+0 -11569-1 0  9991", "line2": "2 66610  42.9991 249.6532 0001326 271.7155 235.0732 15.77846638  2971"}}, "geometry": {"type": "Point", "coordinates": [127.38510738202307, -38.613367175774954]}}, {"type": "Feature", "properties": {"norad_id": 66611, "name": "STARLINK-35583", "group": "last-30-days", "lat": -39.266729056414086, "lon": 129.70965874366254, "alt_km": 341.19937274724725, "timestamp": "2025-12-03T08:58:44.778914+00:00", "meta": {"OBJECT_NAME": "STARLINK-35583", "OBJECT_ID": "2025-270Z", "EPOCH": "2025-12-03T04:00:01.998720", "MEAN_MOTION": 15.77839409, "ECCENTRICITY": 0.0001218, "INCLINATION": 42.9991, "RA_OF_ASC_NODE": 249.6482, "ARG_OF_PERICENTER": 280.6464, "MEAN_ANOMALY": 228.0777, "EPHEMERIS_TYPE": 0, "CLASSIFICATION_TYPE": "U", "NORAD_CAT_ID": 66611, "ELEMENT_SET_NO": 999, "REV_AT_EPOCH": 297, "BSTAR": -0.011562, "MEAN_MOTION_DOT": -0.01769401, "MEAN_MOTION_DDOT": 0}, "tle": {"line1": "1 66611U 25270Z   25337.16668980 -.01769401  00000+0 -11562-1 0  9995", "line2": "2 66611  42.9991 249.6482 0001218 280.6464 228.0777 15.77839409  2977"}}, "geometry": {"type": "Point", "coordinates": [129.70965874366254, -39.266729056414086]}}, {"type": "Feature", "properties": {"norad_id": 66612, "name": "STARLINK-36039", "group": "last-30-days", "lat": -39.90310779895046, "lon": 132.20115860577886, "alt_km": 341.30178469677685, "timestamp": "2025-12-03T08:58:44.778931+00:00", "meta": {"OBJECT_NAME": "STARLINK-36039", "OBJECT_ID": "2025-270AA", "EPOCH": "2025-12-03T04:00:01.998720", "MEAN_MOTION": 15.77787995, "ECCENTRICITY": 0.0001255, "INCLINATION": 42.9991, "RA_OF_ASC_NODE": 249.643, "ARG_OF_PERICENTER": 276.2128, "MEAN_ANOMALY": 234.5792, "EPHEMERIS_TYPE": 0, "CLASSIFICATION_TYPE": "U", "NORAD_CAT_ID": 66612, "ELEMENT_SET_NO": 999, "REV_AT_EPOCH": 286, "BSTAR": -0.01164, "MEAN_MOTION_DOT": -0.01776192, "MEAN_MOTION_DDOT": 0}, "tle": {"line1": "1 66612U 25270AA  25337.16668980 -.01776192  00000+0 -11640-1 0  9998", "line2": "2 66612  42.9991 249.6430 0001255 276.2128 234.5792 15.77787995  2869"}}, "geometry": {"type": "Point", "coordinates": [132.20115860577886, -39.90310779895046]}}]}